[{"OBJECT_NAME":"STARLINK-31277","OBJECT_ID":"2024-082W","EPOCH":"2026-03-09T12:18:18.609696","MEAN_MOTION":15.27558795,"ECCENTRICITY":6.19e-5,"INCLINATION":43.0003,"RA_OF_ASC_NODE":140.9135,"ARG_OF_PERICENTER":200.516,"MEAN_ANOMALY":159.5667,"EPHEMERIS_TYPE":0,"CLASSIFICATION_TYPE":"U","NORAD_CAT_ID":59651,"ELEMENT_SET_NO":999,"REV_AT_EPOCH":10498,"BSTAR":-8.2603e-5,"MEAN_MOTION_DOT":-2.532e-5,"MEAN_MOTION_DDOT":0},{"OBJECT_NAME":"FLOCK 4G-30","OBJECT_ID":"2025-009BY","EPOCH":"2026-03-09T17:00:32.842080","MEAN_MOTION":15.27244548,"ECCENTRICITY":0.00037948,"INCLINATION":97.3969,"RA_OF_ASC_NODE":150.6012,"ARG_OF_PERICENTER":342.4152,"MEAN_ANOMALY":17.6955,"EPHEMERIS_TYPE":0,"CLASSIFICATION_TYPE":"U","NORAD_CAT_ID":62679,"ELEMENT_SET_NO":999,"REV_AT_EPOCH":12134,"BSTAR":0.00049474629,"MEAN_MOTION_DOT":0.00013147,"MEAN_MOTION_DDOT":0}]
