STARLINK-31277          
1 59651U 24082W   26068.51271539 -.00002532  00000+0 -82603-4 0  9993
2 59651  43.0003 140.9135 0000619 200.5160 159.5667 15.27558795104986
FLOCK 4G-30             
1 62679U 25009BY  26068.70871344  .00013147  00000+0  49475-3 0  9999
2 62679  97.3969 150.6012 0003795 342.4152  17.6955 15.27244548121341
